{
  "type": "FeatureCollection",
  "features": [
    {
      "type": "Feature",
      "properties": {
        "norad_id": 25590,
        "name": "COSMOS 2361",
        "group": "musson",
        "lat": 37.44022656725337,
        "lon": -19.094421195715604,
        "alt_km": 1006.9226744734779,
        "timestamp": "2025-12-24T09:46:31.273919+00:00",
        "meta_object_name": "COSMOS 2361",
        "meta_object_id": "1998-076A",
        "meta_epoch": "2025-12-24T01:10:10.272000",
        "meta_mean_motion": 13.7321867,
        "meta_eccentricity": 0.0030276,
        "meta_inclination": 82.9345,
        "meta_ra_of_asc_node": 335.7217,
        "meta_arg_of_pericenter": 232.8689,
        "meta_mean_anomaly": 193.253,
        "meta_ephemeris_type": 0,
        "meta_classification_type": "U",
        "meta_norad_cat_id": 25590,
        "meta_element_set_no": 999,
        "meta_rev_at_epoch": 35266,
        "meta_bstar": 3.8252e-05,
        "meta_mean_motion_dot": 5e-07,
        "meta_mean_motion_ddot": 0,
        "tle_line1": "1 25590U 98076A   25358.04873000  .00000050  00000+0  38252-4 0  9994",
        "tle_line2": "2 25590  82.9345 335.7217 0030276 232.8689 193.2530 13.73218670352661"
      },
      "geometry": {
        "type": "Point",
        "coordinates": [
          -19.094421195715604,
          37.44022656725337
        ]
      }
    },
    {
      "type": "Feature",
      "properties": {
        "norad_id": 26818,
        "name": "COSMOS 2378",
        "group": "musson",
        "lat": 30.60788563558437,
        "lon": 166.86109074220633,
        "alt_km": 960.6148788411247,
        "timestamp": "2025-12-24T09:46:31.273942+00:00",
        "meta_object_name": "COSMOS 2378",
        "meta_object_id": "2001-023A",
        "meta_epoch": "2025-12-24T02:23:31.654752",
        "meta_mean_motion": 13.74142919,
        "meta_eccentricity": 0.0033111,
        "meta_inclination": 82.9272,
        "meta_ra_of_asc_node": 351.301,
        "meta_arg_of_pericenter": 173.0325,
        "meta_mean_anomaly": 255.1688,
        "meta_ephemeris_type": 0,
        "meta_classification_type": "U",
        "meta_norad_cat_id": 26818,
        "meta_element_set_no": 999,
        "meta_rev_at_epoch": 23079,
        "meta_bstar": 3.4432e-05,
        "meta_mean_motion_dot": 4.8e-07,
        "meta_mean_motion_ddot": 0,
        "tle_line1": "1 26818U 01023A   25358.09967193  .00000048  00000+0  34432-4 0  9999",
        "tle_line2": "2 26818  82.9272 351.3010 0033111 173.0325 255.1688 13.74142919230797"
      },
      "geometry": {
        "type": "Point",
        "coordinates": [
          166.86109074220633,
          30.60788563558437
        ]
      }
    },
    {
      "type": "Feature",
      "properties": {
        "norad_id": 27436,
        "name": "COSMOS 2389",
        "group": "musson",
        "lat": 38.23233077082875,
        "lon": -56.058471650841774,
        "alt_km": 944.0479058732999,
        "timestamp": "2025-12-24T09:46:31.273955+00:00",
        "meta_object_name": "COSMOS 2389",
        "meta_object_id": "2002-026A",
        "meta_epoch": "2025-12-24T02:39:16.265088",
        "meta_mean_motion": 13.75155835,
        "meta_eccentricity": 0.0047137,
        "meta_inclination": 82.9512,
        "meta_ra_of_asc_node": 298.5673,
        "meta_arg_of_pericenter": 29.7155,
        "meta_mean_anomaly": 340.8447,
        "meta_ephemeris_type": 0,
        "meta_classification_type": "U",
        "meta_norad_cat_id": 27436,
        "meta_element_set_no": 999,
        "meta_rev_at_epoch": 18305,
        "meta_bstar": 6.3815e-05,
        "meta_mean_motion_dot": 7.7e-07,
        "meta_mean_motion_ddot": 0,
        "tle_line1": "1 27436U 02026A   25358.11060492  .00000077  00000+0  63815-4 0  9998",
        "tle_line2": "2 27436  82.9512 298.5673 0047137  29.7155 340.8447 13.75155835183052"
      },
      "geometry": {
        "type": "Point",
        "coordinates": [
          -56.058471650841774,
          38.23233077082875
        ]
      }
    },
    {
      "type": "Feature",
      "properties": {
        "norad_id": 27818,
        "name": "COSMOS 2398",
        "group": "musson",
        "lat": -54.70157340909058,
        "lon": 94.16927074676651,
        "alt_km": 1019.7805741933553,
        "timestamp": "2025-12-24T09:46:31.273967+00:00",
        "meta_object_name": "COSMOS 2398",
        "meta_object_id": "2003-023A",
        "meta_epoch": "2025-12-24T03:55:05.303712",
        "meta_mean_motion": 13.72386966,
        "meta_eccentricity": 0.00327,
        "meta_inclination": 82.9483,
        "meta_ra_of_asc_node": 264.2806,
        "meta_arg_of_pericenter": 81.3728,
        "meta_mean_anomaly": 28.6421,
        "meta_ephemeris_type": 0,
        "meta_classification_type": "U",
        "meta_norad_cat_id": 27818,
        "meta_element_set_no": 999,
        "meta_rev_at_epoch": 12973,
        "meta_bstar": 7.5955e-05,
        "meta_mean_motion_dot": 8.5e-07,
        "meta_mean_motion_ddot": 0,
        "tle_line1": "1 27818U 03023A   25358.16325583  .00000085  00000+0  75955-4 0  9997",
        "tle_line2": "2 27818  82.9483 264.2806 0032700  81.3728  28.6421 13.72386966129737"
      },
      "geometry": {
        "type": "Point",
        "coordinates": [
          94.16927074676651,
          -54.70157340909058
        ]
      }
    },
    {
      "type": "Feature",
      "properties": {
        "norad_id": 28380,
        "name": "COSMOS 2407",
        "group": "musson",
        "lat": -54.787840439271974,
        "lon": 34.338502453468834,
        "alt_km": 1008.6973000711096,
        "timestamp": "2025-12-24T09:46:31.273978+00:00",
        "meta_object_name": "COSMOS 2407",
        "meta_object_id": "2004-028A",
        "meta_epoch": "2025-12-24T00:39:10.771200",
        "meta_mean_motion": 13.76314935,
        "meta_eccentricity": 0.00398,
        "meta_inclination": 82.9595,
        "meta_ra_of_asc_node": 204.5353,
        "meta_arg_of_pericenter": 24.01,
        "meta_mean_anomaly": 129.3509,
        "meta_ephemeris_type": 0,
        "meta_classification_type": "U",
        "meta_norad_cat_id": 28380,
        "meta_element_set_no": 999,
        "meta_rev_at_epoch": 7578,
        "meta_bstar": 4.2994e-05,
        "meta_mean_motion_dot": 5.7e-07,
        "meta_mean_motion_ddot": 0,
        "tle_line1": "1 28380U 04028A   25358.02720800  .00000057  00000+0  42994-4 0  9990",
        "tle_line2": "2 28380  82.9595 204.5353 0039800  24.0100 129.3509 13.76314935 75788"
      },
      "geometry": {
        "type": "Point",
        "coordinates": [
          34.338502453468834,
          -54.787840439271974
        ]
      }
    },
    {
      "type": "Feature",
      "properties": {
        "norad_id": 28521,
        "name": "COSMOS 2414",
        "group": "musson",
        "lat": -81.571151388307,
        "lon": 52.478317659879586,
        "alt_km": 971.4413482285327,
        "timestamp": "2025-12-24T09:46:31.273990+00:00",
        "meta_object_name": "COSMOS 2414",
        "meta_object_id": "2005-002A",
        "meta_epoch": "2025-12-23T11:44:27.459744",
        "meta_mean_motion": 13.87904329,
        "meta_eccentricity": 0.00413832,
        "meta_inclination": 82.9488,
        "meta_ra_of_asc_node": 176.5312,
        "meta_arg_of_pericenter": 109.8571,
        "meta_mean_anomaly": 250.706,
        "meta_ephemeris_type": 0,
        "meta_classification_type": "U",
        "meta_norad_cat_id": 28521,
        "meta_element_set_no": 999,
        "meta_rev_at_epoch": 5944,
        "meta_bstar": 3.8343846e-05,
        "meta_mean_motion_dot": 6.2e-07,
        "meta_mean_motion_ddot": 0,
        "tle_line1": "1 28521U 05002A   25357.48920671  .00000062  00000+0  38344-4 0  9997",
        "tle_line2": "2 28521  82.9488 176.5312 0041383 109.8571 250.7060 13.87904329 59442"
      },
      "geometry": {
        "type": "Point",
        "coordinates": [
          52.478317659879586,
          -81.571151388307
        ]
      }
    },
    {
      "type": "Feature",
      "properties": {
        "norad_id": 32052,
        "name": "COSMOS 2429",
        "group": "musson",
        "lat": -43.5833887301794,
        "lon": 161.44098538234994,
        "alt_km": 1010.0582410981651,
        "timestamp": "2025-12-24T09:46:31.274001+00:00",
        "meta_object_name": "COSMOS 2429",
        "meta_object_id": "2007-038A",
        "meta_epoch": "2025-12-23T23:57:26.951040",
        "meta_mean_motion": 13.75150474,
        "meta_eccentricity": 0.0038573,
        "meta_inclination": 82.9807,
        "meta_ra_of_asc_node": 335.0087,
        "meta_arg_of_pericenter": 6.8822,
        "meta_mean_anomaly": 353.2856,
        "meta_ephemeris_type": 0,
        "meta_classification_type": "U",
        "meta_norad_cat_id": 32052,
        "meta_element_set_no": 999,
        "meta_rev_at_epoch": 91757,
        "meta_bstar": 4.2028e-05,
        "meta_mean_motion_dot": 5.6e-07,
        "meta_mean_motion_ddot": 0,
        "tle_line1": "1 32052U 07038A   25357.99822860  .00000056  00000+0  42028-4 0  9996",
        "tle_line2": "2 32052  82.9807 335.0087 0038573   6.8822 353.2856 13.75150474917574"
      },
      "geometry": {
        "type": "Point",
        "coordinates": [
          161.44098538234994,
          -43.5833887301794
        ]
      }
    },
    {
      "type": "Feature",
      "properties": {
        "norad_id": 35635,
        "name": "COSMOS 2454",
        "group": "musson",
        "lat": 39.9002564335171,
        "lon": 165.73427177622887,
        "alt_km": 911.1037304238225,
        "timestamp": "2025-12-24T09:46:31.274011+00:00",
        "meta_object_name": "COSMOS 2454",
        "meta_object_id": "2009-039A",
        "meta_epoch": "2025-12-23T22:00:46.624320",
        "meta_mean_motion": 13.89929976,
        "meta_eccentricity": 0.0020065,
        "meta_inclination": 82.9557,
        "meta_ra_of_asc_node": 160.1717,
        "meta_arg_of_pericenter": 43.6325,
        "meta_mean_anomaly": 65.7894,
        "meta_ephemeris_type": 0,
        "meta_classification_type": "U",
        "meta_norad_cat_id": 35635,
        "meta_element_set_no": 999,
        "meta_rev_at_epoch": 83305,
        "meta_bstar": 4.5962e-05,
        "meta_mean_motion_dot": 7.3e-07,
        "meta_mean_motion_ddot": 0,
        "tle_line1": "1 35635U 09039A   25357.91720630  .00000073  00000+0  45962-4 0  9992",
        "tle_line2": "2 35635  82.9557 160.1717 0020065  43.6325  65.7894 13.89929976833050"
      },
      "geometry": {
        "type": "Point",
        "coordinates": [
          165.73427177622887,
          39.9002564335171
        ]
      }
    },
    {
      "type": "Feature",
      "properties": {
        "norad_id": 36519,
        "name": "COSMOS 2463",
        "group": "musson",
        "lat": 33.678003757403644,
        "lon": 22.861071831063317,
        "alt_km": 1010.966553282793,
        "timestamp": "2025-12-24T09:46:31.274022+00:00",
        "meta_object_name": "COSMOS 2463",
        "meta_object_id": "2010-017A",
        "meta_epoch": "2025-12-24T02:55:06.367008",
        "meta_mean_motion": 13.71650101,
        "meta_eccentricity": 0.003479,
        "meta_inclination": 82.9603,
        "meta_ra_of_asc_node": 18.348,
        "meta_arg_of_pericenter": 255.2965,
        "meta_mean_anomaly": 168.5024,
        "meta_ephemeris_type": 0,
        "meta_classification_type": "U",
        "meta_norad_cat_id": 36519,
        "meta_element_set_no": 999,
        "meta_rev_at_epoch": 78393,
        "meta_bstar": 2.8275e-05,
        "meta_mean_motion_dot": 4e-07,
        "meta_mean_motion_ddot": 0,
        "tle_line1": "1 36519U 10017A   25358.12160147  .00000040  00000+0  28275-4 0  9999",
        "tle_line2": "2 36519  82.9603  18.3480 0034790 255.2965 168.5024 13.71650101783936"
      },
      "geometry": {
        "type": "Point",
        "coordinates": [
          22.861071831063317,
          33.678003757403644
        ]
      }
    }
  ]
}